{"fetched_at":"2026-03-30T13:17:50Z","count":15418,"tles":[{"name":"STARLINK-32879","line1":"1 62957U 25029K   26087.88485486  .00025649  00000+0  87485-3 0  9991","line2":"2 62957  53.1601 143.4980 0001416  82.7515 277.3646 15.30210784 64259","category":"Starlink"}]}