{
  "norad_id": 62957,
  "name": "STARLINK-32879",
  "history": [
    {
      "epoch": "2026-03-28T21:14:11.459904Z",
      "apogee_km": 476.1533006219197,
      "perigee_km": 474.2124404345859,
      "latitude_deg": -5.3076600563939574e-05,
      "longitude_deg": -1.3486778122388363,
      "height_km": 475.9583428900368,
      "semi_major_axis_km": 6853.319870528252,
      "eccentricity": 0.0001416,
      "inclination_deg": 53.1601,
      "raan_deg": 143.498,
      "arg_perigee_deg": 82.7515,
      "mean_anomaly_deg": 277.3646,
      "mean_motion_rev_day": 15.30210784
    }
  ]
}